{
  "type": "FeatureCollection",
  "features": [
    {
      "type": "Feature",
      "properties": {
        "norad_id": 66632,
        "name": "STARLINK-35973",
        "group": "last-30-days",
        "lat": -29.246126669562745,
        "lon": 103.06272129597782,
        "alt_km": 450.44910768557656,
        "timestamp": "2025-12-25T07:00:32.762370+00:00",
        "meta_object_name": "STARLINK-35973",
        "meta_object_id": "2025-271R",
        "meta_epoch": "2025-12-24T09:21:44.129376",
        "meta_mean_motion": 15.39657214,
        "meta_eccentricity": 8.843e-05,
        "meta_inclination": 53.1616,
        "meta_ra_of_asc_node": 132.1345,
        "meta_arg_of_pericenter": 44.7602,
        "meta_mean_anomaly": 315.3474,
        "meta_ephemeris_type": 0,
        "meta_classification_type": "U",
        "meta_norad_cat_id": 66632,
        "meta_element_set_no": 999,
        "meta_rev_at_epoch": 596,
        "meta_bstar": 0.0019181176,
        "meta_mean_motion_dot": 0.00077198,
        "meta_mean_motion_ddot": 0,
        "tle_line1": "1 66632U 25271R   25358.39009409  .00077198  00000+0  19181-2 0  9990",
        "tle_line2": "2 66632  53.1616 132.1345 0000884  44.7602 315.3474 15.39657214  5969"
      },
      "geometry": {
        "type": "Point",
        "coordinates": [
          103.06272129597782,
          -29.246126669562745
        ]
      }
    },
    {
      "type": "Feature",
      "properties": {
        "norad_id": 66633,
        "name": "STARLINK-35948",
        "group": "last-30-days",
        "lat": -28.159156908005706,
        "lon": 104.22101405202602,
        "alt_km": 451.0538203793267,
        "timestamp": "2025-12-25T07:00:32.762383+00:00",
        "meta_object_name": "STARLINK-35948",
        "meta_object_id": "2025-271S",
        "meta_epoch": "2025-12-24T15:35:10.142016",
        "meta_mean_motion": 15.39618587,
        "meta_eccentricity": 0.00012272,
        "meta_inclination": 53.1608,
        "meta_ra_of_asc_node": 130.909,
        "meta_arg_of_pericenter": 61.4848,
        "meta_mean_anomaly": 298.628,
        "meta_ephemeris_type": 0,
        "meta_classification_type": "U",
        "meta_norad_cat_id": 66633,
        "meta_element_set_no": 999,
        "meta_rev_at_epoch": 604,
        "meta_bstar": 0.00024094919,
        "meta_mean_motion_dot": 9.25e-05,
        "meta_mean_motion_ddot": 0,
        "tle_line1": "1 66633U 25271S   25358.64942294  .00009250  00000+0  24095-3 0  9992",
        "tle_line2": "2 66633  53.1608 130.9090 0001227  61.4848 298.6280 15.39618587  6042"
      },
      "geometry": {
        "type": "Point",
        "coordinates": [
          104.22101405202602,
          -28.159156908005706
        ]
      }
    },
    {
      "type": "Feature",
      "properties": {
        "norad_id": 66634,
        "name": "STARLINK-35967",
        "group": "last-30-days",
        "lat": -8.257167130393922,
        "lon": 121.57991665735722,
        "alt_km": 448.9892499364387,
        "timestamp": "2025-12-25T07:00:32.762395+00:00",
        "meta_object_name": "STARLINK-35967",
        "meta_object_id": "2025-271T",
        "meta_epoch": "2025-12-24T20:08:54.695616",
        "meta_mean_motion": 15.39642253,
        "meta_eccentricity": 9.606e-05,
        "meta_inclination": 53.1609,
        "meta_ra_of_asc_node": 129.9588,
        "meta_arg_of_pericenter": 81.7938,
        "meta_mean_anomaly": 278.3176,
        "meta_ephemeris_type": 0,
        "meta_classification_type": "U",
        "meta_norad_cat_id": 66634,
        "meta_element_set_no": 999,
        "meta_rev_at_epoch": 603,
        "meta_bstar": 0.0011889181,
        "meta_mean_motion_dot": 0.00047487,
        "meta_mean_motion_ddot": 0,
        "tle_line1": "1 66634U 25271T   25358.83952194  .00047487  00000+0  11889-2 0  9994",
        "tle_line2": "2 66634  53.1609 129.9588 0000960  81.7938 278.3176 15.39642253  6037"
      },
      "geometry": {
        "type": "Point",
        "coordinates": [
          121.57991665735722,
          -8.257167130393922
        ]
      }
    },
    {
      "type": "Feature",
      "properties": {
        "norad_id": 66635,
        "name": "STARLINK-35955",
        "group": "last-30-days",
        "lat": 31.769627429923034,
        "lon": 155.3903210819229,
        "alt_km": 442.64026704168464,
        "timestamp": "2025-12-25T07:00:32.762406+00:00",
        "meta_object_name": "STARLINK-35955",
        "meta_object_id": "2025-271U",
        "meta_epoch": "2025-12-24T19:55:32.376576",
        "meta_mean_motion": 15.39629943,
        "meta_eccentricity": 9.884e-05,
        "meta_inclination": 53.16,
        "meta_ra_of_asc_node": 129.9025,
        "meta_arg_of_pericenter": 68.8387,
        "meta_mean_anomaly": 291.2723,
        "meta_ephemeris_type": 0,
        "meta_classification_type": "U",
        "meta_norad_cat_id": 66635,
        "meta_element_set_no": 999,
        "meta_rev_at_epoch": 607,
        "meta_bstar": 0.00042784609,
        "meta_mean_motion_dot": 0.00016757,
        "meta_mean_motion_ddot": 0,
        "tle_line1": "1 66635U 25271U   25358.83023584  .00016757  00000+0  42785-3 0  9993",
        "tle_line2": "2 66635  53.1600 129.9025 0000988  68.8387 291.2723 15.39629943  6076"
      },
      "geometry": {
        "type": "Point",
        "coordinates": [
          155.3903210819229,
          31.769627429923034
        ]
      }
    },
    {
      "type": "Feature",
      "properties": {
        "norad_id": 66636,
        "name": "STARLINK-35968",
        "group": "last-30-days",
        "lat": 12.26883507811658,
        "lon": 137.15822785620333,
        "alt_km": 446.07721357859464,
        "timestamp": "2025-12-25T07:00:32.762417+00:00",
        "meta_object_name": "STARLINK-35968",
        "meta_object_id": "2025-271V",
        "meta_epoch": "2025-12-24T20:02:13.473024",
        "meta_mean_motion": 15.39634087,
        "meta_eccentricity": 7.251e-05,
        "meta_inclination": 53.1605,
        "meta_ra_of_asc_node": 129.93,
        "meta_arg_of_pericenter": 83.7174,
        "meta_mean_anomaly": 276.3913,
        "meta_ephemeris_type": 0,
        "meta_classification_type": "U",
        "meta_norad_cat_id": 66636,
        "meta_element_set_no": 999,
        "meta_rev_at_epoch": 607,
        "meta_bstar": 0.0010176366,
        "meta_mean_motion_dot": 0.0004054,
        "meta_mean_motion_ddot": 0,
        "tle_line1": "1 66636U 25271V   25358.83487816  .00040540  00000+0  10176-2 0  9991",
        "tle_line2": "2 66636  53.1605 129.9300 0000725  83.7174 276.3913 15.39634087  6077"
      },
      "geometry": {
        "type": "Point",
        "coordinates": [
          137.15822785620333,
          12.26883507811658
        ]
      }
    },
    {
      "type": "Feature",
      "properties": {
        "norad_id": 66637,
        "name": "STARLINK-35953",
        "group": "last-30-days",
        "lat": 47.43995089892358,
        "lon": -177.600626982029,
        "alt_km": 440.1151773039501,
        "timestamp": "2025-12-25T07:00:32.762427+00:00",
        "meta_object_name": "STARLINK-35953",
        "meta_object_id": "2025-271W",
        "meta_epoch": "2025-12-24T16:41:53.954304",
        "meta_mean_motion": 15.39644073,
        "meta_eccentricity": 8.482e-05,
        "meta_inclination": 53.1618,
        "meta_ra_of_asc_node": 130.484,
        "meta_arg_of_pericenter": 76.7014,
        "meta_mean_anomaly": 283.4085,
        "meta_ephemeris_type": 0,
        "meta_classification_type": "U",
        "meta_norad_cat_id": 66637,
        "meta_element_set_no": 999,
        "meta_rev_at_epoch": 605,
        "meta_bstar": 0.00090986718,
        "meta_mean_motion_dot": 0.00036196,
        "meta_mean_motion_ddot": 0,
        "tle_line1": "1 66637U 25271W   25358.69576336  .00036196  00000+0  90987-3 0  9993",
        "tle_line2": "2 66637  53.1618 130.4840 0000848  76.7014 283.4085 15.39644073  6052"
      },
      "geometry": {
        "type": "Point",
        "coordinates": [
          -177.600626982029,
          47.43995089892358
        ]
      }
    },
    {
      "type": "Feature",
      "properties": {
        "norad_id": 66638,
        "name": "STARLINK-35972",
        "group": "last-30-days",
        "lat": 44.64166006906061,
        "lon": -100.19307090782193,
        "alt_km": 440.68465093603663,
        "timestamp": "2025-12-25T07:00:32.762437+00:00",
        "meta_object_name": "STARLINK-35972",
        "meta_object_id": "2025-271X",
        "meta_epoch": "2025-12-24T18:01:59.926656",
        "meta_mean_motion": 15.39636845,
        "meta_eccentricity": 9.362e-05,
        "meta_inclination": 53.1615,
        "meta_ra_of_asc_node": 130.117,
        "meta_arg_of_pericenter": 77.2586,
        "meta_mean_anomaly": 282.8523,
        "meta_ephemeris_type": 0,
        "meta_classification_type": "U",
        "meta_norad_cat_id": 66638,
        "meta_element_set_no": 999,
        "meta_rev_at_epoch": 606,
        "meta_bstar": 0.00050986556,
        "meta_mean_motion_dot": 0.00020059,
        "meta_mean_motion_ddot": 0,
        "tle_line1": "1 66638U 25271X   25358.75138804  .00020059  00000+0  50987-3 0  9992",
        "tle_line2": "2 66638  53.1615 130.1170 0000936  77.2586 282.8523 15.39636845  6060"
      },
      "geometry": {
        "type": "Point",
        "coordinates": [
          -100.19307090782193,
          44.64166006906061
        ]
      }
    }
  ]
}